[{"OBJECT_NAME":"ONEWEB-0506","OBJECT_ID":"2022-138M","EPOCH":"2026-03-09T16:53:46.892544","MEAN_MOTION":13.19725453,"ECCENTRICITY":0.00015959,"INCLINATION":87.9238,"RA_OF_ASC_NODE":324.778,"ARG_OF_PERICENTER":91.0951,"MEAN_ANOMALY":269.0364,"EPHEMERIS_TYPE":0,"CLASSIFICATION_TYPE":"U","NORAD_CAT_ID":54124,"ELEMENT_SET_NO":999,"REV_AT_EPOCH":16368,"BSTAR":-0.00052081839,"MEAN_MOTION_DOT":-1.96e-6,"MEAN_MOTION_DDOT":0},{"OBJECT_NAME":"CZ-4C DEB","OBJECT_ID":"2010-059E","EPOCH":"2026-03-09T08:48:23.177952","MEAN_MOTION":13.71352703,"ECCENTRICITY":0.02690884,"INCLINATION":98.6543,"RA_OF_ASC_NODE":275.3464,"ARG_OF_PERICENTER":99.3571,"MEAN_ANOMALY":25.4803,"EPHEMERIS_TYPE":0,"CLASSIFICATION_TYPE":"U","NORAD_CAT_ID":38295,"ELEMENT_SET_NO":999,"REV_AT_EPOCH":65479,"BSTAR":0.00037577364,"MEAN_MOTION_DOT":4.01e-6,"MEAN_MOTION_DDOT":0}]
